#aV2024  2 10  0  0  0.00000000     288 DD+AD WGS84 FIT  NGA
## 2300 518400.00000000   300.00000000 60350 0.0000000000000
+   32     1  2  3  4  5  6  7  8  9 10 11 12 13 14 15 16 17
+         18 19 20 21 22 23 24 25 26 27 28 29 30 31 32  0  0
+          0  0  0  0  0  0  0  0  0  0  0  0  0  0  0  0  0
+          0  0  0  0  0  0  0  0  0  0  0  0  0  0  0  0  0
+          0  0  0  0  0  0  0  0  0  0  0  0  0  0  0  0  0
++         2  2  2  2  2  2  2  2  2  2  2  2  2  2  2  2  2
++         2  2  2  2  2  2  2  2  2  2  2  2  2  2  2  0  0
++         0  0  0  0  0  0  0  0  0  0  0  0  0  0  0  0  0
++         0  0  0  0  0  0  0  0  0  0  0  0  0  0  0  0  0
++         0  0  0  0  0  0  0  0  0  0  0  0  0  0  0  0  0
%c cc cc ccc ccc cccc cccc cccc cccc ccccc ccccc ccccc ccccc
%c cc cc ccc ccc cccc cccc cccc cccc ccccc ccccc ccccc ccccc
%f  0.0000000  0.000000000  0.00000000000  0.000000000000000
%f  0.0000000  0.000000000  0.00000000000  0.000000000000000
%i    0    0    0    0      0      0      0      0         0
%i    0    0    0    0      0      0      0      0         0
/*      NGA, ST. LOUIS,MO.                                  
/*   EPHEMERIS COMPUTED FROM 2 DAYS OF DATA                 
/*   EPOCHA v9 SMOOTHER                                     
/*   G2296 IERS2010 SATIGS SATAPC                           
*  2024  2 10 15 15  0.00000000
P  1 -12719.411959 -12444.426968 -20172.014288    169.017116                    
V  1  24595.363186  -2121.065440 -14124.934837      0.014564                    
P  2  -4542.941876 -14234.427838 -21478.269528   -487.554441                    
V  2  28008.449989  -4848.887535  -2406.669286      0.058563                    
P  3 -11166.262457 -23403.441191  -6177.932466    184.398631                    
V  3   5912.628015   5170.427689 -30873.523641      0.245025                    
P  4  -1722.094381 -21019.753825  16075.050390    288.310077                    
V  4  11034.583491 -17300.231390 -21590.580040      0.094486                    
P  5   2023.766881  20819.463029  16139.768047   -161.291543                    
V  5 -14130.196326 -15417.091767  21517.426835     -0.014623                    
P  6 -25033.753726   6179.174627   6669.429504    412.381138                    
V  6  -8428.517081  -1110.664809 -30824.756537     -0.146485                    
P  7 -23106.787896  -6815.357283  12185.454007    -58.688873                    
V  7  14337.100700  -3338.891381  25920.026079     -0.091336                    
P  8   3834.897025 -24563.495430  -8807.198786   -166.346835                    
V  8   7256.905698  -9054.786893  29141.200702     -0.018341                    
P  9 -11936.561670 -10136.173390  21364.967509     87.625778                    
V  9  11528.879728 -24792.455837  -5357.443424      0.126258                    
P 10  17795.639151   2903.211386 -19409.071470     -0.519445                    
V 10  13494.785309  20978.031165  15034.939632      0.046680                    
P 11 -17234.785490  11905.989287  16326.068850   -571.149782                    
V 11 -20741.574674  -1041.167633 -21213.966056     -0.129925                    
P 12   9073.703782  24187.827441  -6610.324959   -476.638320                    
V 12  -6271.491241  -5577.286870 -30268.548679     -0.037523                    
P 13 -13282.342783  22787.002276  -2030.352708    624.267985                    
V 13  -3503.764398    507.485693  31998.124214      0.035294                    
P 14 -19174.898464  -6561.844145 -17240.364155    322.148737                    
V 14 -10457.089318 -19341.885793  18780.315475      0.100199                    
P 15   -627.541368  25064.976738  -8928.219611    126.294724                    
V 15  -6323.491045   9352.966295  28464.724958      0.039223                    
P 16   5624.178340 -16999.448279  19129.099106   -365.622483                    
V 16  13882.743102  21035.292930  14810.681486      0.082278                    
P 17 -17262.020177   3823.330951 -19444.255657    717.417445                    
V 17  11279.771162 -22944.110710 -14070.729283     -0.011546                    
P 18  23714.884155   5736.728518  10730.927807   -552.547159                    
V 18 -13364.522368   2823.877319  27884.183802     -0.084629                    
P 19 -18789.376255  11913.144879 -14417.146538    438.772367                    
V 19   7608.212110 -16568.734455 -24267.801338      0.052747                    
P 20  -9055.194744  12688.795554  21576.664331    388.016687                    
V 20 -19374.489945 -19195.181516   3003.675804     -0.014269                    
P 21    854.031794 -15163.022403 -21210.022518    135.419908                    
V 21  27928.855661  -4020.974719   4869.790451     -0.013536                    
P 22 -15938.285694   1229.516500 -20732.193272     33.471187                    
V 22 -12711.149913 -24263.327481   8449.356395     -0.062650                    
P 23  19702.505199  14083.574562 -11100.708498    153.310303                    
V 23   6850.160840  12392.232378  27638.693620      0.079887                    
P 24   2570.260731  15777.897266 -21617.636285   -429.450353                    
V 24 -26223.812024   4486.928473    575.479485     -0.063533                    
P 25  17122.145330  20234.071525   2927.496631    488.164528                    
V 25     29.449271   5034.642758 -31063.292692      0.011806                    
P 26  13453.664912  -8410.490391  21168.175006    191.647055                    
V 26  17178.369351  21251.362116  -2090.829381     -0.039518                    
P 27  12723.843499 -22837.755357   2805.645430     -2.818199                    
V 27   1148.596072   4875.155925  31844.931216     -0.033989                    
P 28  25724.198278  -5536.944177   3566.241464   -126.531670                    
V 28   4848.250754   2217.781327 -31345.794153     -0.125488                    
P 29   9708.012895  12344.385372  21355.093064   -607.229571                    
V 29 -13945.013116  23374.004761  -7253.018971      0.006666                    
P 30 -26637.969699    738.428580   1917.144257   -434.346828                    
V 30   1994.374524  -3535.825893  30885.892318      0.048950                    
P 31  21548.421071  -9940.264317  12120.336980   -227.720186                    
V 31  15696.091774   1305.459755 -25980.017460     -0.001379                    
P 32  17478.436401  -7689.705101 -18171.873534   -610.861934                    
V 32  -8292.795759  22114.884531 -17350.758216     -0.021524                    
EOF
